[{"OBJECT_NAME":"STARLINK-4412","OBJECT_ID":"2022-099N","EPOCH":"2026-01-13T19:18:09.538848","MEAN_MOTION":15.01264998,"ECCENTRICITY":0.00031939,"INCLINATION":97.6027,"RA_OF_ASC_NODE":136.4453,"ARG_OF_PERICENTER":85.7249,"MEAN_ANOMALY":274.4341,"EPHEMERIS_TYPE":0,"CLASSIFICATION_TYPE":"U","NORAD_CAT_ID":53477,"ELEMENT_SET_NO":999,"REV_AT_EPOCH":18844,"BSTAR":-0.00015566712,"MEAN_MOTION_DOT":-2.058e-5,"MEAN_MOTION_DDOT":0},{"OBJECT_NAME":"STARLINK-4433","OBJECT_ID":"2022-099P","EPOCH":"2026-01-13T14:03:32.376096","MEAN_MOTION":15.01262248,"ECCENTRICITY":6.724e-5,"INCLINATION":97.6021,"RA_OF_ASC_NODE":136.2767,"ARG_OF_PERICENTER":103.3291,"MEAN_ANOMALY":256.8009,"EPHEMERIS_TYPE":0,"CLASSIFICATION_TYPE":"U","NORAD_CAT_ID":53478,"ELEMENT_SET_NO":999,"REV_AT_EPOCH":18771,"BSTAR":-7.485052e-6,"MEAN_MOTION_DOT":-1.54e-6,"MEAN_MOTION_DDOT":0},{"OBJECT_NAME":"STARLINK-4436","OBJECT_ID":"2022-099Q","EPOCH":"2026-01-13T14:36:33.603264","MEAN_MOTION":15.05649466,"ECCENTRICITY":9.917e-5,"INCLINATION":97.6019,"RA_OF_ASC_NODE":136.9938,"ARG_OF_PERICENTER":97.7521,"MEAN_ANOMALY":262.3819,"EPHEMERIS_TYPE":0,"CLASSIFICATION_TYPE":"U","NORAD_CAT_ID":53479,"ELEMENT_SET_NO":999,"REV_AT_EPOCH":18776,"BSTAR":-9.813345e-5,"MEAN_MOTION_DOT":-1.476e-5,"MEAN_MOTION_DDOT":0},{"OBJECT_NAME":"STARLINK-4442","OBJECT_ID":"2022-099R","EPOCH":"2026-01-13T14:00:39.293568","MEAN_MOTION":15.05646594,"ECCENTRICITY":0.00013198,"INCLINATION":97.6023,"RA_OF_ASC_NODE":136.8832,"ARG_OF_PERICENTER":91.6043,"MEAN_ANOMALY":268.5335,"EPHEMERIS_TYPE":0,"CLASSIFICATION_TYPE":"U","NORAD_CAT_ID":53480,"ELEMENT_SET_NO":999,"REV_AT_EPOCH":18775,"BSTAR":-1.6550666e-5,"MEAN_MOTION_DOT":-3.0e-6,"MEAN_MOTION_DDOT":0},{"OBJECT_NAME":"STARLINK-4302","OBJECT_ID":"2022-099S","EPOCH":"2026-01-13T07:34:17.355360","MEAN_MOTION":15.0126441,"ECCENTRICITY":4.72e-5,"INCLINATION":97.6023,"RA_OF_ASC_NODE":135.9972,"ARG_OF_PERICENTER":121.8665,"MEAN_ANOMALY":238.2605,"EPHEMERIS_TYPE":0,"CLASSIFICATION_TYPE":"U","NORAD_CAT_ID":53481,"ELEMENT_SET_NO":999,"REV_AT_EPOCH":18767,"BSTAR":-1.9706e-5,"MEAN_MOTION_DOT":-3.11e-6,"MEAN_MOTION_DDOT":0},{"OBJECT_NAME":"STARLINK-4360","OBJECT_ID":"2022-099T","EPOCH":"2026-01-13T13:42:12.260736","MEAN_MOTION":15.01259933,"ECCENTRICITY":0.00048145,"INCLINATION":97.6031,"RA_OF_ASC_NODE":136.2695,"ARG_OF_PERICENTER":201.1135,"MEAN_ANOMALY":158.9891,"EPHEMERIS_TYPE":0,"CLASSIFICATION_TYPE":"U","NORAD_CAT_ID":53482,"ELEMENT_SET_NO":999,"REV_AT_EPOCH":18771,"BSTAR":9.66598e-7,"MEAN_MOTION_DOT":-4.6e-7,"MEAN_MOTION_DDOT":0},{"OBJECT_NAME":"STARLINK-4426","OBJECT_ID":"2022-099V","EPOCH":"2026-01-13T18:43:45.704640","MEAN_MOTION":15.0564827,"ECCENTRICITY":5.886e-5,"INCLINATION":97.6023,"RA_OF_ASC_NODE":137.067,"ARG_OF_PERICENTER":97.3531,"MEAN_ANOMALY":262.7762,"EPHEMERIS_TYPE":0,"CLASSIFICATION_TYPE":"U","NORAD_CAT_ID":53484,"ELEMENT_SET_NO":999,"REV_AT_EPOCH":18778,"BSTAR":-3.8322903e-5,"MEAN_MOTION_DOT":-6.14e-6,"MEAN_MOTION_DDOT":0},{"OBJECT_NAME":"STARLINK-4430","OBJECT_ID":"2022-099W","EPOCH":"2026-01-13T13:47:29.587200","MEAN_MOTION":15.0129195,"ECCENTRICITY":0.00018322,"INCLINATION":97.6021,"RA_OF_ASC_NODE":136.2478,"ARG_OF_PERICENTER":227.7162,"MEAN_ANOMALY":132.3908,"EPHEMERIS_TYPE":0,"CLASSIFICATION_TYPE":"U","NORAD_CAT_ID":53485,"ELEMENT_SET_NO":999,"REV_AT_EPOCH":18771,"BSTAR":0.00031506346,"MEAN_MOTION_DOT":3.994e-5,"MEAN_MOTION_DDOT":0},{"OBJECT_NAME":"STARLINK-4431","OBJECT_ID":"2022-099X","EPOCH":"2026-01-13T18:40:48.713376","MEAN_MOTION":15.0126178,"ECCENTRICITY":0.00012811,"INCLINATION":97.602,"RA_OF_ASC_NODE":136.4488,"ARG_OF_PERICENTER":247.8323,"MEAN_ANOMALY":112.2766,"EPHEMERIS_TYPE":0,"CLASSIFICATION_TYPE":"U","NORAD_CAT_ID":53486,"ELEMENT_SET_NO":999,"REV_AT_EPOCH":18774,"BSTAR":-1.7203636e-5,"MEAN_MOTION_DOT":-2.79e-6,"MEAN_MOTION_DDOT":0},{"OBJECT_NAME":"STARLINK-4432","OBJECT_ID":"2022-099Y","EPOCH":"2026-01-13T18:15:50.952096","MEAN_MOTION":15.05651023,"ECCENTRICITY":6.234e-5,"INCLINATION":97.6029,"RA_OF_ASC_NODE":137.0701,"ARG_OF_PERICENTER":95.6419,"MEAN_ANOMALY":264.4879,"EPHEMERIS_TYPE":0,"CLASSIFICATION_TYPE":"U","NORAD_CAT_ID":53487,"ELEMENT_SET_NO":999,"REV_AT_EPOCH":18778,"BSTAR":5.7577464e-5,"MEAN_MOTION_DOT":7.7e-6,"MEAN_MOTION_DDOT":0},{"OBJECT_NAME":"STARLINK-4421","OBJECT_ID":"2022-099Z","EPOCH":"2026-01-13T06:34:03.347040","MEAN_MOTION":15.0564984,"ECCENTRICITY":3.44e-5,"INCLINATION":97.602,"RA_OF_ASC_NODE":136.6544,"ARG_OF_PERICENTER":203.1828,"MEAN_ANOMALY":156.9383,"EPHEMERIS_TYPE":0,"CLASSIFICATION_TYPE":"U","NORAD_CAT_ID":53488,"ELEMENT_SET_NO":999,"REV_AT_EPOCH":18771,"BSTAR":2.3643e-5,"MEAN_MOTION_DOT":2.8e-6,"MEAN_MOTION_DDOT":0},{"OBJECT_NAME":"STARLINK-4392","OBJECT_ID":"2022-099AA","EPOCH":"2026-01-13T18:38:29.598144","MEAN_MOTION":15.01262228,"ECCENTRICITY":0.00029867,"INCLINATION":97.6021,"RA_OF_ASC_NODE":136.4291,"ARG_OF_PERICENTER":241.7607,"MEAN_ANOMALY":118.3316,"EPHEMERIS_TYPE":0,"CLASSIFICATION_TYPE":"U","NORAD_CAT_ID":53489,"ELEMENT_SET_NO":999,"REV_AT_EPOCH":18774,"BSTAR":-4.3565241e-5,"MEAN_MOTION_DOT":-6.18e-6,"MEAN_MOTION_DDOT":0},{"OBJECT_NAME":"STARLINK-4387","OBJECT_ID":"2022-099AB","EPOCH":"2026-01-13T18:27:48.317472","MEAN_MOTION":15.05668037,"ECCENTRICITY":0.00011713,"INCLINATION":97.6019,"RA_OF_ASC_NODE":137.0608,"ARG_OF_PERICENTER":94.4317,"MEAN_ANOMALY":265.7043,"EPHEMERIS_TYPE":0,"CLASSIFICATION_TYPE":"U","NORAD_CAT_ID":53490,"ELEMENT_SET_NO":999,"REV_AT_EPOCH":18777,"BSTAR":-0.00016300754,"MEAN_MOTION_DOT":-2.413e-5,"MEAN_MOTION_DDOT":0},{"OBJECT_NAME":"STARLINK-4450","OBJECT_ID":"2022-099AC","EPOCH":"2026-01-13T18:17:10.378752","MEAN_MOTION":15.0126104,"ECCENTRICITY":2.128e-5,"INCLINATION":97.6034,"RA_OF_ASC_NODE":136.4403,"ARG_OF_PERICENTER":143.0104,"MEAN_ANOMALY":217.1135,"EPHEMERIS_TYPE":0,"CLASSIFICATION_TYPE":"U","NORAD_CAT_ID":53491,"ELEMENT_SET_NO":999,"REV_AT_EPOCH":18774,"BSTAR":4.0966026e-5,"MEAN_MOTION_DOT":4.68e-6,"MEAN_MOTION_DDOT":0},{"OBJECT_NAME":"STARLINK-4451","OBJECT_ID":"2022-099AD","EPOCH":"2026-01-13T18:24:49.127328","MEAN_MOTION":15.01262353,"ECCENTRICITY":0.0002855,"INCLINATION":97.6033,"RA_OF_ASC_NODE":136.4403,"ARG_OF_PERICENTER":163.3996,"MEAN_ANOMALY":196.7322,"EPHEMERIS_TYPE":0,"CLASSIFICATION_TYPE":"U","NORAD_CAT_ID":53492,"ELEMENT_SET_NO":999,"REV_AT_EPOCH":18774,"BSTAR":3.7812201e-5,"MEAN_MOTION_DOT":4.27e-6,"MEAN_MOTION_DDOT":0},{"OBJECT_NAME":"STARLINK-4361","OBJECT_ID":"2022-099AE","EPOCH":"2026-01-13T19:11:46.245120","MEAN_MOTION":15.79083553,"ECCENTRICITY":5.273e-5,"INCLINATION":97.6473,"RA_OF_ASC_NODE":147.7094,"ARG_OF_PERICENTER":293.5775,"MEAN_ANOMALY":66.5436,"EPHEMERIS_TYPE":0,"CLASSIFICATION_TYPE":"U","NORAD_CAT_ID":53493,"ELEMENT_SET_NO":999,"REV_AT_EPOCH":18840,"BSTAR":0.00020834186,"MEAN_MOTION_DOT":0.00036907,"MEAN_MOTION_DDOT":0}]
