STARLINK-4412           
1 53477U 22099N   26013.80427707 -.00002058  00000+0 -15567-3 0  9998
2 53477  97.6027 136.4453 0003193  85.7249 274.4341 15.01264998188441
STARLINK-4433           
1 53478U 22099P   26013.58579139 -.00000154  00000+0 -74851-5 0  9999
2 53478  97.6021 136.2767 0000672 103.3291 256.8009 15.01262248187715
STARLINK-4436           
1 53479U 22099Q   26013.60872226 -.00001476  00000+0 -98133-4 0  9992
2 53479  97.6019 136.9938 0000991  97.7521 262.3819 15.05649466187767
STARLINK-4442           
1 53480U 22099R   26013.58378812 -.00000300  00000+0 -16551-4 0  9992
2 53480  97.6023 136.8832 0001319  91.6043 268.5335 15.05646594187752
STARLINK-4302           
1 53481U 22099S   26013.31547865 -.00000311  00000+0 -19706-4 0  9997
2 53481  97.6023 135.9972 0000472 121.8665 238.2605 15.01264410187677
STARLINK-4360           
1 53482U 22099T   26013.57097524 -.00000046  00000+0  96660-6 0  9998
2 53482  97.6031 136.2695 0004814 201.1135 158.9891 15.01259933187715
STARLINK-4426           
1 53484U 22099V   26013.78039010 -.00000614  00000+0 -38323-4 0  9991
2 53484  97.6023 137.0670 0000588  97.3531 262.7762 15.05648270187787
STARLINK-4430           
1 53485U 22099W   26013.57464800  .00003994  00000+0  31506-3 0  9995
2 53485  97.6021 136.2478 0001832 227.7162 132.3908 15.01291950187717
STARLINK-4431           
1 53486U 22099X   26013.77834159 -.00000279  00000+0 -17204-4 0  9991
2 53486  97.6020 136.4488 0001281 247.8323 112.2766 15.01261780187740
STARLINK-4432           
1 53487U 22099Y   26013.76100639  .00000770  00000+0  57577-4 0  9991
2 53487  97.6029 137.0701 0000623  95.6419 264.4879 15.05651023187785
STARLINK-4421           
1 53488U 22099Z   26013.27364985  .00000280  00000+0  23643-4 0  9997
2 53488  97.6020 136.6544 0000344 203.1828 156.9383 15.05649840187719
STARLINK-4392           
1 53489U 22099AA  26013.77673146 -.00000618  00000+0 -43565-4 0  9997
2 53489  97.6021 136.4291 0002986 241.7607 118.3316 15.01262228187743
STARLINK-4387           
1 53490U 22099AB  26013.76930923 -.00002413  00000+0 -16301-3 0  9999
2 53490  97.6019 137.0608 0001171  94.4317 265.7043 15.05668037187776
STARLINK-4450           
1 53491U 22099AC  26013.76192568  .00000468  00000+0  40966-4 0  9996
2 53491  97.6034 136.4403 0000212 143.0104 217.1135 15.01261040187749
STARLINK-4451           
1 53492U 22099AD  26013.76723527  .00000427  00000+0  37812-4 0  9993
2 53492  97.6033 136.4403 0002855 163.3996 196.7322 15.01262353187746
STARLINK-4361           
1 53493U 22099AE  26013.79984080  .00036907  00000+0  20834-3 0  9997
2 53493  97.6473 147.7094 0000527 293.5775  66.5436 15.79083553188403
